ARIANE 5 R/B            
1 28499U 04049H   25319.43027278  .00001410  00000+0  16246-3 0  9999
2 28499  98.2508 118.7362 0084714   2.2741 357.8841 14.84931345128834
CZ-2D R/B               
1 28738U 05024B   25319.45335598  .00027158  00000+0  46107-3 0  9994
2 28738  97.3664 326.2207 0008202  82.2728 277.9455 15.51415812122027
ALOS (DAICHI)           
1 28931U 06002A   25319.45754550  .00002602  00000+0  44843-3 0  9991
2 28931  98.1042 271.1461 0000972  56.2682 303.8616 14.69364024 56702
H-2A R/B                
1 28932U 06002B   25319.36046124  .00011033  00000+0  59265-3 0  9995
2 28932  98.2297  91.8929 0054370 269.9692  89.5307 15.13826170 77126
RESURS-DK 1             
1 29228U 06021A   25319.31011638  .00003146  00000+0  18919-3 0  9999
2 29228  69.9319 172.7135 0007119 283.3745  76.6627 15.11944056 70230
CZ-4B R/B               
1 29507U 06046C   25319.37113186  .00005815  00000+0  30668-3 0  9993
2 29507  97.5783 359.5850 0032868 305.1396  54.6757 15.15492561 42721
CZ-2C R/B               
1 31114U 07010B   25319.31252453  .00000343  00000+0  17696-3 0  9994
2 31114  98.3965  73.3457 0057883 266.6625  92.7929 14.20193616963486
COSMO-SKYMED 1          
1 31598U 07023A   25319.49162358  .00004842  00000+0  44261-3 0  9993
2 31598  97.8854 144.7171 0001311  80.7812 279.3556 14.95486291997827
COSMOS 2428             
1 31792U 07029A   25319.48115110 -.00000123  00000+0 -40184-4 0  9999
2 31792  70.9368  83.1071 0002235  71.1788 288.9575 14.12888598947964
SL-16 R/B               
1 31793U 07029B   25319.52749535  .00000420  00000+0  24239-3 0  9999
2 31793  70.9772  52.3571 0002144 260.1617 185.6436 14.14811827949220
KORONAS-FOTON           
1 33504U 09003A   25319.28252686  .00015687  00000+0  38674-3 0  9993
2 33504  82.4343  34.5330 0011242 202.6043 157.4709 15.40355860928117
CZ-2C R/B               
1 37731U 11030B   25319.50849963  .00003011  00000+0  38837-3 0  9996
2 37731  97.8363 274.2275 0053235   3.7271 114.3716 14.80764336773198
