CCSDS_OMM_VERS = 2.0
CREATION_DATE  = 
ORIGINATOR     = 

OBJECT_NAME    = ARIANE 5 R/B
OBJECT_ID      = 2004-049H
CENTER_NAME    = EARTH
REF_FRAME      = TEME
TIME_SYSTEM    = UTC
MEAN_ELEMENT_THEORY = SGP/SGP4

EPOCH          = 2025-11-15T10:19:35.568192
MEAN_MOTION    = 14.84931345
ECCENTRICITY   = .0084714
INCLINATION    = 98.2508
RA_OF_ASC_NODE = 118.7362
ARG_OF_PERICENTER = 2.2741
MEAN_ANOMALY   = 357.8841

EPHEMERIS_TYPE = 0
CLASSIFICATION_TYPE = U
NORAD_CAT_ID   = 28499
ELEMENT_SET_NO = 999
REV_AT_EPOCH   = 12883
BSTAR          = .16246E-3
MEAN_MOTION_DOT = .141E-4
MEAN_MOTION_DDOT = 0

CCSDS_OMM_VERS = 2.0
CREATION_DATE  = 
ORIGINATOR     = 

OBJECT_NAME    = CZ-2D R/B
OBJECT_ID      = 2005-024B
CENTER_NAME    = EARTH
REF_FRAME      = TEME
TIME_SYSTEM    = UTC
MEAN_ELEMENT_THEORY = SGP/SGP4

EPOCH          = 2025-11-15T10:52:49.956672
MEAN_MOTION    = 15.51415812
ECCENTRICITY   = .0008202
INCLINATION    = 97.3664
RA_OF_ASC_NODE = 326.2207
ARG_OF_PERICENTER = 82.2728
MEAN_ANOMALY   = 277.9455

EPHEMERIS_TYPE = 0
CLASSIFICATION_TYPE = U
NORAD_CAT_ID   = 28738
ELEMENT_SET_NO = 999
REV_AT_EPOCH   = 12202
BSTAR          = .46107E-3
MEAN_MOTION_DOT = .27158E-3
MEAN_MOTION_DDOT = 0

CCSDS_OMM_VERS = 2.0
CREATION_DATE  = 
ORIGINATOR     = 

OBJECT_NAME    = ALOS (DAICHI)
OBJECT_ID      = 2006-002A
CENTER_NAME    = EARTH
REF_FRAME      = TEME
TIME_SYSTEM    = UTC
MEAN_ELEMENT_THEORY = SGP/SGP4

EPOCH          = 2025-11-15T10:58:51.931200
MEAN_MOTION    = 14.69364024
ECCENTRICITY   = .0000972
INCLINATION    = 98.1042
RA_OF_ASC_NODE = 271.1461
ARG_OF_PERICENTER = 56.2682
MEAN_ANOMALY   = 303.8616

EPHEMERIS_TYPE = 0
CLASSIFICATION_TYPE = U
NORAD_CAT_ID   = 28931
ELEMENT_SET_NO = 999
REV_AT_EPOCH   = 5670
BSTAR          = .44843E-3
MEAN_MOTION_DOT = .2602E-4
MEAN_MOTION_DDOT = 0

CCSDS_OMM_VERS = 2.0
CREATION_DATE  = 
ORIGINATOR     = 

OBJECT_NAME    = H-2A R/B
OBJECT_ID      = 2006-002B
CENTER_NAME    = EARTH
REF_FRAME      = TEME
TIME_SYSTEM    = UTC
MEAN_ELEMENT_THEORY = SGP/SGP4

EPOCH          = 2025-11-15T08:39:03.851136
MEAN_MOTION    = 15.13826170
ECCENTRICITY   = .005437
INCLINATION    = 98.2297
RA_OF_ASC_NODE = 91.8929
ARG_OF_PERICENTER = 269.9692
MEAN_ANOMALY   = 89.5307

EPHEMERIS_TYPE = 0
CLASSIFICATION_TYPE = U
NORAD_CAT_ID   = 28932
ELEMENT_SET_NO = 999
REV_AT_EPOCH   = 7712
BSTAR          = .59265E-3
MEAN_MOTION_DOT = .11033E-3
MEAN_MOTION_DDOT = 0

CCSDS_OMM_VERS = 2.0
CREATION_DATE  = 
ORIGINATOR     = 

OBJECT_NAME    = RESURS-DK 1
OBJECT_ID      = 2006-021A
CENTER_NAME    = EARTH
REF_FRAME      = TEME
TIME_SYSTEM    = UTC
MEAN_ELEMENT_THEORY = SGP/SGP4

EPOCH          = 2025-11-15T07:26:34.055232
MEAN_MOTION    = 15.11944056
ECCENTRICITY   = .0007119
INCLINATION    = 69.9319
RA_OF_ASC_NODE = 172.7135
ARG_OF_PERICENTER = 283.3745
MEAN_ANOMALY   = 76.6627

EPHEMERIS_TYPE = 0
CLASSIFICATION_TYPE = U
NORAD_CAT_ID   = 29228
ELEMENT_SET_NO = 999
REV_AT_EPOCH   = 7023
BSTAR          = .18919E-3
MEAN_MOTION_DOT = .3146E-4
MEAN_MOTION_DDOT = 0

CCSDS_OMM_VERS = 2.0
CREATION_DATE  = 
ORIGINATOR     = 

OBJECT_NAME    = CZ-4B R/B
OBJECT_ID      = 2006-046C
CENTER_NAME    = EARTH
REF_FRAME      = TEME
TIME_SYSTEM    = UTC
MEAN_ELEMENT_THEORY = SGP/SGP4

EPOCH          = 2025-11-15T08:54:25.792704
MEAN_MOTION    = 15.15492561
ECCENTRICITY   = .0032868
INCLINATION    = 97.5783
RA_OF_ASC_NODE = 359.5850
ARG_OF_PERICENTER = 305.1396
MEAN_ANOMALY   = 54.6757

EPHEMERIS_TYPE = 0
CLASSIFICATION_TYPE = U
NORAD_CAT_ID   = 29507
ELEMENT_SET_NO = 999
REV_AT_EPOCH   = 4272
BSTAR          = .30668E-3
MEAN_MOTION_DOT = .5815E-4
MEAN_MOTION_DDOT = 0

CCSDS_OMM_VERS = 2.0
CREATION_DATE  = 
ORIGINATOR     = 

OBJECT_NAME    = CZ-2C R/B
OBJECT_ID      = 2007-010B
CENTER_NAME    = EARTH
REF_FRAME      = TEME
TIME_SYSTEM    = UTC
MEAN_ELEMENT_THEORY = SGP/SGP4

EPOCH          = 2025-11-15T07:30:02.119392
MEAN_MOTION    = 14.20193616
ECCENTRICITY   = .0057883
INCLINATION    = 98.3965
RA_OF_ASC_NODE = 73.3457
ARG_OF_PERICENTER = 266.6625
MEAN_ANOMALY   = 92.7929

EPHEMERIS_TYPE = 0
CLASSIFICATION_TYPE = U
NORAD_CAT_ID   = 31114
ELEMENT_SET_NO = 999
REV_AT_EPOCH   = 96348
BSTAR          = .17696E-3
MEAN_MOTION_DOT = .343E-5
MEAN_MOTION_DDOT = 0

CCSDS_OMM_VERS = 2.0
CREATION_DATE  = 
ORIGINATOR     = 

OBJECT_NAME    = COSMO-SKYMED 1
OBJECT_ID      = 2007-023A
CENTER_NAME    = EARTH
REF_FRAME      = TEME
TIME_SYSTEM    = UTC
MEAN_ELEMENT_THEORY = SGP/SGP4

EPOCH          = 2025-11-15T11:47:56.277312
MEAN_MOTION    = 14.95486291
ECCENTRICITY   = .0001311
INCLINATION    = 97.8854
RA_OF_ASC_NODE = 144.7171
ARG_OF_PERICENTER = 80.7812
MEAN_ANOMALY   = 279.3556

EPHEMERIS_TYPE = 0
CLASSIFICATION_TYPE = U
NORAD_CAT_ID   = 31598
ELEMENT_SET_NO = 999
REV_AT_EPOCH   = 99782
BSTAR          = .44261E-3
MEAN_MOTION_DOT = .4842E-4
MEAN_MOTION_DDOT = 0

CCSDS_OMM_VERS = 2.0
CREATION_DATE  = 
ORIGINATOR     = 

OBJECT_NAME    = COSMOS 2428
OBJECT_ID      = 2007-029A
CENTER_NAME    = EARTH
REF_FRAME      = TEME
TIME_SYSTEM    = UTC
MEAN_ELEMENT_THEORY = SGP/SGP4

EPOCH          = 2025-11-15T11:32:51.455040
MEAN_MOTION    = 14.12888598
ECCENTRICITY   = .0002235
INCLINATION    = 70.9368
RA_OF_ASC_NODE = 83.1071
ARG_OF_PERICENTER = 71.1788
MEAN_ANOMALY   = 288.9575

EPHEMERIS_TYPE = 0
CLASSIFICATION_TYPE = U
NORAD_CAT_ID   = 31792
ELEMENT_SET_NO = 999
REV_AT_EPOCH   = 94796
BSTAR          = -.40184E-4
MEAN_MOTION_DOT = -.123E-5
MEAN_MOTION_DDOT = 0

CCSDS_OMM_VERS = 2.0
CREATION_DATE  = 
ORIGINATOR     = 

OBJECT_NAME    = SL-16 R/B
OBJECT_ID      = 2007-029B
CENTER_NAME    = EARTH
REF_FRAME      = TEME
TIME_SYSTEM    = UTC
MEAN_ELEMENT_THEORY = SGP/SGP4

EPOCH          = 2025-11-15T12:39:35.598240
MEAN_MOTION    = 14.14811827
ECCENTRICITY   = .0002144
INCLINATION    = 70.9772
RA_OF_ASC_NODE = 52.3571
ARG_OF_PERICENTER = 260.1617
MEAN_ANOMALY   = 185.6436

EPHEMERIS_TYPE = 0
CLASSIFICATION_TYPE = U
NORAD_CAT_ID   = 31793
ELEMENT_SET_NO = 999
REV_AT_EPOCH   = 94922
BSTAR          = .24239E-3
MEAN_MOTION_DOT = .42E-5
MEAN_MOTION_DDOT = 0

CCSDS_OMM_VERS = 2.0
CREATION_DATE  = 
ORIGINATOR     = 

OBJECT_NAME    = KORONAS-FOTON
OBJECT_ID      = 2009-003A
CENTER_NAME    = EARTH
REF_FRAME      = TEME
TIME_SYSTEM    = UTC
MEAN_ELEMENT_THEORY = SGP/SGP4

EPOCH          = 2025-11-15T06:46:50.320704
MEAN_MOTION    = 15.40355860
ECCENTRICITY   = .0011242
INCLINATION    = 82.4343
RA_OF_ASC_NODE = 34.5330
ARG_OF_PERICENTER = 202.6043
MEAN_ANOMALY   = 157.4709

EPHEMERIS_TYPE = 0
CLASSIFICATION_TYPE = U
NORAD_CAT_ID   = 33504
ELEMENT_SET_NO = 999
REV_AT_EPOCH   = 92811
BSTAR          = .38674E-3
MEAN_MOTION_DOT = .15687E-3
MEAN_MOTION_DDOT = 0

CCSDS_OMM_VERS = 2.0
CREATION_DATE  = 
ORIGINATOR     = 

OBJECT_NAME    = CZ-2C R/B
OBJECT_ID      = 2011-030B
CENTER_NAME    = EARTH
REF_FRAME      = TEME
TIME_SYSTEM    = UTC
MEAN_ELEMENT_THEORY = SGP/SGP4

EPOCH          = 2025-11-15T12:12:14.368032
MEAN_MOTION    = 14.80764336
ECCENTRICITY   = .0053235
INCLINATION    = 97.8363
RA_OF_ASC_NODE = 274.2275
ARG_OF_PERICENTER = 3.7271
MEAN_ANOMALY   = 114.3716

EPHEMERIS_TYPE = 0
CLASSIFICATION_TYPE = U
NORAD_CAT_ID   = 37731
ELEMENT_SET_NO = 999
REV_AT_EPOCH   = 77319
BSTAR          = .38837E-3
MEAN_MOTION_DOT = .3011E-4
MEAN_MOTION_DDOT = 0

